OBJECT_NAME,OBJECT_ID,EPOCH,MEAN_MOTION,ECCENTRICITY,INCLINATION,RA_OF_ASC_NODE,ARG_OF_PERICENTER,MEAN_ANOMALY,EPHEMERIS_TYPE,CLASSIFICATION_TYPE,NORAD_CAT_ID,ELEMENT_SET_NO,REV_AT_EPOCH,BSTAR,MEAN_MOTION_DOT,MEAN_MOTION_DDOT
ATLAS CENTAUR 2,1963-047A,2026-06-30T18:42:03.085632,14.12541709,.05458124,30.3548,283.3845,357.3711,2.4078,0,U,694,999,14762,.11932223E-3,.1074E-4,0
THOR AGENA D R/B,1964-002A,2026-06-30T23:19:03.211680,14.34071108,.00318123,99.1152,201.4470,289.3590,70.4155,0,U,733,999,25453,.8436024E-4,.188E-5,0
SL-3 R/B,1964-053B,2026-06-30T21:06:11.221920,14.61432892,.00806825,65.0778,359.3653,256.8150,102.3939,0,U,877,999,28333,.54210069E-4,.155E-5,0
SL-8 R/B,1967-045B,2026-06-30T07:16:18.311808,14.45688082,.00630734,74.0106,137.7624,118.5960,242.1564,0,U,2802,999,10529,.73929107E-4,.24E-5,0
SL-8 R/B,1968-040B,2026-06-30T05:19:23.023200,15.03878772,.00257642,74.0314,83.6335,234.7033,125.1746,0,U,3230,999,10692,.18371063E-3,.2505E-4,0
OAO 2,1968-110A,2026-06-30T18:46:58.973664,14.47357250,.00052646,34.9949,353.7679,16.8524,343.2341,0,U,3597,999,3549,.58757327E-4,.199E-5,0
ISIS 1,1969-009A,2026-06-30T19:44:24.756000,11.30435208,.17067084,88.4439,142.9017,220.6748,125.3776,0,U,3669,999,36131,.2954355E-4,.45E-6,0
SERT 2,1970-009A,2026-06-30T19:08:00.957984,13.58740107,.00040332,99.2840,118.7799,230.5008,158.3594,0,U,4327,999,79525,.48008287E-4,-.6E-7,0
SL-3 R/B,1971-028B,2026-06-30T22:42:49.756608,15.71057718,.00143727,81.2332,271.1089,231.3733,128.6240,0,U,5118,999,640,.47389665E-3,.60115E-3,0
ASTEX 1,1971-089A,2026-06-30T10:51:25.148160,14.50861633,.00177832,92.6997,188.1278,67.2508,293.0575,0,U,5560,999,87865,.12343436E-3,.487E-5,0
SL-8 R/B,1971-119B,2026-06-30T21:59:15.073152,14.39596639,.05434597,73.8889,323.7242,266.9360,86.9509,0,U,5730,999,67177,.23104029E-3,.4495E-4,0
OAO 3 (COPERNICUS),1972-065A,2026-06-30T15:19:30.274176,14.60067623,.00065993,35.0070,13.7596,357.9192,57.3799,0,U,6153,999,86271,.65281119E-4,.297E-5,0
ATLAS CENTAUR R/B,1972-065B,2026-06-30T22:10:22.020672,14.77946604,.00341832,35.0031,2.0099,244.3823,115.3343,0,U,6155,999,85802,.14169154E-3,.1025E-4,0
SL-8 R/B,1975-112B,2026-06-30T09:29:49.896096,14.38252378,.00166759,74.0592,171.5740,236.8768,123.0787,0,U,8459,999,64807,.60167328E-4,.157E-5,0
SL-3 R/B,1977-057B,2026-06-30T22:06:11.409696,15.48152265,.0005911,97.5839,359.1292,222.8723,137.2067,0,U,10114,999,68583,.21593725E-3,.11255E-3,0
SEASAT 1,1978-064A,2026-06-30T10:48:57.673728,14.46252112,.00014479,108.0179,2.1317,242.6448,117.4551,0,U,10967,999,52281,.98248674E-4,.214E-5,0
SL-14 R/B,1979-011B,2026-06-30T10:54:20.498688,14.92026319,.00170328,82.5241,349.5619,44.9029,315.3565,0,U,11267,999,54559,.51469058E-4,.549E-5,0
SL-8 R/B,1979-089B,2026-06-30T15:50:37.128480,14.42409671,.00154005,74.0682,241.9171,20.8235,339.3545,0,U,11574,999,45239,.6826032E-4,.2E-5,0
SL-14 R/B,1980-005B,2026-06-30T11:23:28.660992,14.91038951,.00166453,82.5132,200.2357,142.7556,217.4822,0,U,11672,999,49329,.43172071E-4,.454E-5,0
SL-8 R/B,1981-003B,2026-06-29T23:18:25.543872,15.14607214,.02506797,82.9346,185.8907,146.5088,215.2289,0,U,12139,999,33165,.38317851E-3,.15928E-3,0
SL-3 R/B,1981-046B,2026-06-30T22:12:52.420608,15.44488206,.00170001,81.2299,153.5156,350.3789,9.7126,0,U,12465,999,45589,.29822102E-3,.13927E-3,0
SL-3 R/B,1981-103B,2026-06-30T23:43:28.179840,15.22395161,.00114601,81.1587,80.4189,264.2489,95.7436,0,U,12904,999,99046,.21477768E-3,.4993E-4,0
SL-3 R/B,1982-013B,2026-06-30T22:56:12.162912,15.22874428,.00223375,81.1729,27.8946,154.6104,205.6231,0,U,13068,999,42158,.15368457E-3,.365E-4,0
SL-3 R/B,1982-039B,2026-06-30T21:05:45.833280,15.10624344,.00275921,81.1486,85.2678,308.8734,51.0030,0,U,13154,999,39872,.21062806E-3,.3534E-4,0
SL-3 R/B,1982-079B,2026-06-30T21:18:17.585856,15.25900265,.00246339,81.1454,59.2812,139.9142,220.3916,0,U,13403,999,39495,.19669422E-3,.5112E-4,0
SL-14 R/B,1982-092B,2026-06-30T13:44:49.883712,14.86756398,.00188137,82.5671,35.7770,288.2006,94.5904,0,U,13553,999,34570,.39236464E-4,.375E-5,0
SL-3 R/B,1983-010B,2026-06-30T14:54:36.702432,15.49571418,.00145558,81.1000,223.4158,16.5640,343.6079,0,U,13819,999,37541,.22174522E-3,.12326E-3,0
SL-3 R/B,1983-075B,2026-06-30T23:14:53.125152,15.40736820,.00208267,97.6097,191.0377,178.2716,181.8606,0,U,14208,999,34758,.27141208E-3,.11091E-3,0
COSMOS 1536,1984-013A,2026-06-30T14:42:07.973856,15.25192489,.00127778,82.5444,355.4703,242.4399,117.5541,0,U,14699,999,28982,.24778881E-3,.6263E-4,0
SL-14 R/B,1984-027B,2026-06-30T19:35:27.923424,14.86069968,.00169406,82.5422,138.9364,323.1654,36.8397,0,U,14820,999,26443,.48544113E-4,.45E-5,0
