ATLAS CENTAUR 2         
1 00694U 63047A   26181.77920238  .00001074  00000+0  11932-3 0  9995
2 00694  30.3548 283.3845 0545812 357.3711   2.4078 14.12541709147624
THOR AGENA D R/B        
1 00733U 64002A   26181.97156495  .00000188  00000+0  84360-4 0  9990
2 00733  99.1152 201.4470 0031812 289.3590  70.4155 14.34071108254531
SL-3 R/B                
1 00877U 64053B   26181.87929655  .00000155  00000+0  54210-4 0  9995
2 00877  65.0778 359.3653 0080682 256.8150 102.3939 14.61432892283338
SL-8 R/B                
1 02802U 67045B   26181.30298972  .00000240  00000+0  73929-4 0  9991
2 02802  74.0106 137.7624 0063073 118.5960 242.1564 14.45688082105298
SL-8 R/B                
1 03230U 68040B   26181.22179425  .00002505  00000+0  18371-3 0  9990
2 03230  74.0314  83.6335 0025764 234.7033 125.1746 15.03878772106925
OAO 2                   
1 03597U 68110A   26181.78262701  .00000199  00000+0  58757-4 0  9995
2 03597  34.9949 353.7679 0005264  16.8524 343.2341 14.47357250 35496
ISIS 1                  
1 03669U 69009A   26181.82250875  .00000045  00000+0  29544-4 0  9999
2 03669  88.4439 142.9017 1706708 220.6748 125.3776 11.30435208361316
SERT 2                  
1 04327U 70009A   26181.79723331 -.00000006  00000+0  48008-4 0  9995
2 04327  99.2840 118.7799 0004033 230.5008 158.3594 13.58740107795259
SL-3 R/B                
1 05118U 71028B   26181.94640922  .00060115  00000+0  47390-3 0  9995
2 05118  81.2332 271.1089 0014372 231.3733 128.6240 15.71057718  6408
ASTEX 1                 
1 05560U 71089A   26181.45237440  .00000487  00000+0  12343-3 0  9992
2 05560  92.6997 188.1278 0017783  67.2508 293.0575 14.50861633878651
SL-8 R/B                
1 05730U 71119B   26181.91614668  .00004495  00000+0  23104-3 0  9997
2 05730  73.8889 323.7242 0543459 266.9360  86.9509 14.39596639671775
OAO 3 (COPERNICUS)      
1 06153U 72065A   26181.63854484  .00000297  00000+0  65281-4 0  9998
2 06153  35.0070  13.7596 0006599 357.9192  57.3799 14.60067623862717
ATLAS CENTAUR R/B       
1 06155U 72065B   26181.92386598  .00001025  00000+0  14169-3 0  9996
2 06155  35.0031   2.0099 0034183 244.3823 115.3343 14.77946604858027
SL-8 R/B                
1 08459U 75112B   26181.39571639  .00000157  00000+0  60167-4 0  9999
2 08459  74.0592 171.5740 0016675 236.8768 123.0787 14.38252378648071
SL-3 R/B                
1 10114U 77057B   26181.92096539  .00011255  00000+0  21594-3 0  9991
2 10114  97.5839 359.1292 0005911 222.8723 137.2067 15.48152265685838
SEASAT 1                
1 10967U 78064A   26181.45066752  .00000214  00000+0  98249-4 0  9993
2 10967 108.0179   2.1317 0001447 242.6448 117.4551 14.46252112522811
SL-14 R/B               
1 11267U 79011B   26181.45440392  .00000549  00000+0  51469-4 0  9990
2 11267  82.5241 349.5619 0017032  44.9029 315.3565 14.92026319545592
SL-8 R/B                
1 11574U 79089B   26181.66015195  .00000200  00000+0  68260-4 0  9999
2 11574  74.0682 241.9171 0015400  20.8235 339.3545 14.42409671452395
SL-14 R/B               
1 11672U 80005B   26181.47463728  .00000454  00000+0  43172-4 0  9992
2 11672  82.5132 200.2357 0016645 142.7556 217.4822 14.91038951493295
SL-8 R/B                
1 12139U 81003B   26180.97112898  .00015928  00000+0  38318-3 0  9990
2 12139  82.9346 185.8907 0250679 146.5088 215.2289 15.14607214331657
SL-3 R/B                
1 12465U 81046B   26181.92560672  .00013927  00000+0  29822-3 0  9999
2 12465  81.2299 153.5156 0017000 350.3789   9.7126 15.44488206455898
SL-3 R/B                
1 12904U 81103B   26181.98852060  .00004993  00000+0  21478-3 0  9994
2 12904  81.1587  80.4189 0011460 264.2489  95.7436 15.22395161990462
SL-3 R/B                
1 13068U 82013B   26181.95569633  .00003650  00000+0  15368-3 0  9995
2 13068  81.1729  27.8946 0022337 154.6104 205.6231 15.22874428421584
SL-3 R/B                
1 13154U 82039B   26181.87900270  .00003534  00000+0  21063-3 0  9996
2 13154  81.1486  85.2678 0027592 308.8734  51.0030 15.10624344398726
SL-3 R/B                
1 13403U 82079B   26181.88770354  .00005112  00000+0  19669-3 0  9999
2 13403  81.1454  59.2812 0024633 139.9142 220.3916 15.25900265394958
SL-14 R/B               
1 13553U 82092B   26181.57279958  .00000375  00000+0  39236-4 0  9999
2 13553  82.5671  35.7770 0018813 288.2006  94.5904 14.86756398345701
SL-3 R/B                
1 13819U 83010B   26181.62125813  .00012326  00000+0  22175-3 0  9993
2 13819  81.1000 223.4158 0014555  16.5640 343.6079 15.49571418375418
SL-3 R/B                
1 14208U 83075B   26181.96867043  .00011091  00000+0  27141-3 0  9998
2 14208  97.6097 191.0377 0020826 178.2716 181.8606 15.40736820347586
COSMOS 1536             
1 14699U 84013A   26181.61259229  .00006263  00000+0  24779-3 0  9997
2 14699  82.5444 355.4703 0012777 242.4399 117.5541 15.25192489289821
SL-14 R/B               
1 14820U 84027B   26181.81629541  .00000450  00000+0  48544-4 0  9997
2 14820  82.5422 138.9364 0016940 323.1654  36.8397 14.86069968264430
